NORAD_CAT_ID,OBJECT_NAME,OBJECT_TYPE,EPOCH,MEAN_MOTION,ECCENTRICITY,INCLINATION,RA_OF_ASC_NODE,ARG_OF_PERICENTER,MEAN_ANOMALY,BSTAR,MEAN_MOTION_DOT,MEAN_MOTION_DDOT,TLE_LINE0,TLE_LINE1,TLE_LINE2,SEMIMAJOR_AXIS,PERIOD,APOGEE,PERIGEE,DECAYED
52348.0,STARLINK-3829,PAYLOAD,2023-06-14 00:06:54,15.08846727,0.0001086,53.2176,6.8818,90.9975,269.1141,9.479e-05,1.221e-05,0.0,0 STARLINK-3829,1 52348U 22045T   23165.00480140  .00001221  00000-0  94790-4 0  9998,2 52348  53.2176   6.8818 0001086  90.9975 269.1141 15.08846727 64869,6917.86,95.437,540.476,538.974,0.0
52348.0,STARLINK-3829,PAYLOAD,2023-06-14 08:03:50,15.08853906,0.0001069,53.2166,5.3932,107.7164,252.3945,-0.00014648,-2.619e-05,0.0,0 STARLINK-3829,1 52348U 22045T   23165.33600020 -.00002619  00000-0 -14648-3 0  9992,2 52348  53.2166   5.3932 0001069 107.7164 252.3945 15.08853906 64916,6917.838,95.437,540.442,538.963,0.0
52348.0,STARLINK-3829,PAYLOAD,2023-06-14 16:00:47,15.08831984,0.0001214,53.2173,3.9066,105.001,255.1117,6.6105e-05,7.64e-06,0.0,0 STARLINK-3829,1 52348U 22045T   23165.66721121  .00000764  00000-0  66105-4 0  9997,2 52348  53.2173   3.9066 0001214 105.0010 255.1117 15.08831984 64968,6917.905,95.438,540.61,538.93,0.0
52348.0,STARLINK-3829,PAYLOAD,2023-06-14 22:22:19,15.0884126,9.91e-05,53.2177,2.7188,86.5847,273.5259,7.3536e-05,8.83e-06,0.0,0 STARLINK-3829,1 52348U 22045T   23165.93216681  .00000883  00000-0  73536-4 0  9995,2 52348  53.2177   2.7188 0000991  86.5847 273.5259 15.08841260 65001,6917.877,95.437,540.427,539.056,0.0
52348.0,STARLINK-3829,PAYLOAD,2023-06-15 19:02:20,15.08841091,0.000117,53.2174,358.8521,87.8589,272.2538,5.0735e-05,5.2e-06,0.0,0 STARLINK-3829,1 52348U 22045T   23166.79328998  .00000520  00000-0  50735-4 0  9999,2 52348  53.2174 358.8521 0001170  87.8589 272.2538 15.08841091 65133,6917.877,95.437,540.551,538.933,0.0
52348.0,STARLINK-3829,PAYLOAD,2023-06-16 06:10:01,15.08844091,0.0001131,53.2177,356.7691,96.7619,263.3502,5.4039e-05,5.72e-06,0.0,0 STARLINK-3829,1 52348U 22045T   23167.25696705  .00000572  00000-0  54039-4 0  9993,2 52348  53.2177 356.7691 0001131  96.7619 263.3502 15.08844091 65204,6917.868,95.437,540.515,538.95,0.0
52348.0,STARLINK-3829,PAYLOAD,2023-06-16 18:53:06,15.08849884,0.0001059,53.2175,354.3902,104.4839,255.6271,0.0001788,2.56e-05,0.0,0 STARLINK-3829,1 52348U 22045T   23167.78687909  .00002560  00000-0  17880-3 0  9998,2 52348  53.2175 354.3902 0001059 104.4839 255.6271 15.08849884 65281,6917.85,95.437,540.448,538.983,0.0
52348.0,STARLINK-3829,PAYLOAD,2023-06-16 22:03:52,15.0885679,0.000127,53.2175,353.7955,87.0781,273.0356,0.00018744,2.698e-05,0.0,0 STARLINK-3829,1 52348U 22045T   23167.91935419  .00002698  00000-0  18744-3 0  9997,2 52348  53.2175 353.7955 0001270  87.0781 273.0356 15.08856790 65304,6917.829,95.436,540.573,538.816,0.0
52348.0,STARLINK-3829,PAYLOAD,2023-06-17 06:00:49,15.08834635,9.16e-05,53.2175,352.3091,107.079,253.0302,5.8768e-05,6.48e-06,0.0,0 STARLINK-3829,1 52348U 22045T   23168.25057024  .00000648  00000-0  58768-4 0  9996,2 52348  53.2175 352.3091 0000916 107.0790 253.0302 15.08834635 65357,6917.897,95.438,540.395,539.128,0.0
52348.0,STARLINK-3829,PAYLOAD,2023-06-17 20:19:18,15.08827214,0.0001304,53.2166,349.6351,94.7744,265.3397,-0.00013231,-2.392e-05,0.0,0 STARLINK-3829,1 52348U 22045T   23168.84673799 -.00002392  00000-0 -13231-3 0  9999,2 52348  53.2166 349.6351 0001304  94.7744 265.3397 15.08827214 65443,6917.919,95.438,540.687,538.882,0.0
52348.0,STARLINK-3829,PAYLOAD,2023-06-17 21:54:41,15.08827959,0.0001317,53.2165,349.3376,93.7692,266.3451,-0.00011861,-2.174e-05,0.0,0 STARLINK-3829,1 52348U 22045T   23168.91297799 -.00002174  00000-0 -11861-3 0  9994,2 52348  53.2165 349.3376 0001317  93.7692 266.3451 15.08827959 65450,6917.917,95.438,540.693,538.871,0.0
52348.0,STARLINK-3829,PAYLOAD,2023-06-18 18:34:41,15.08847064,0.0001113,53.2172,345.4737,86.7524,273.3595,0.00014136,1.963e-05,0.0,0 STARLINK-3829,1 52348U 22045T   23169.77408812  .00001963  00000-0  14136-3 0  9990,2 52348  53.2172 345.4737 0001113  86.7524 273.3595 15.08847064 65586,6917.859,95.437,540.494,538.954,0.0
52348.0,STARLINK-3829,PAYLOAD,2023-06-19 12:03:56,15.08833297,0.0001214,53.2178,342.1978,97.2243,262.8887,0.00014993,2.099e-05,0.0,0 STARLINK-3829,1 52348U 22045T   23170.50273572  .00002099  00000-0  14993-3 0  9998,2 52348  53.2178 342.1978 0001214  97.2243 262.8887 15.08833297 65692,6917.901,95.438,540.606,538.926,0.0
52348.0,STARLINK-3829,PAYLOAD,2023-06-19 18:25:28,15.08838034,0.0001328,53.2183,341.0101,94.6732,265.4412,0.0002705,4.019e-05,0.0,0 STARLINK-3829,1 52348U 22045T   23170.76769186  .00004019  00000-0  27050-3 0  9999,2 52348  53.2183 341.0101 0001328  94.6732 265.4412 15.08838034 65736,6917.886,95.438,540.67,538.833,0.0
52348.0,STARLINK-3829,PAYLOAD,2023-06-20 03:57:47,15.08841139,0.0001014,53.2167,339.2282,96.3611,263.7497,9.881e-05,1.285e-05,0.0,0 STARLINK-3829,1 52348U 22045T   23171.16513148  .00001285  00000-0  98810-4 0  9994,2 52348  53.2167 339.2282 0001014  96.3611 263.7497 15.08841139 65794,6917.877,95.437,540.443,539.04,0.0
52348.0,STARLINK-3829,PAYLOAD,2023-06-20 19:51:38,15.08842617,9.17e-05,53.2167,336.254,93.5096,266.6001,-7.7283e-05,-1.518e-05,0.0,0 STARLINK-3829,1 52348U 22045T   23171.82753009 -.00001518  00000-0 -77283-4 0  9991,2 52348  53.2167 336.2540 0000917  93.5096 266.6001 15.08842617 65891,6917.872,95.437,540.372,539.103,0.0
52348.0,STARLINK-3829,PAYLOAD,2023-06-21 10:10:07,15.08838082,0.0001322,53.2163,333.5783,85.2098,274.9045,9.7177e-05,1.259e-05,0.0,0 STARLINK-3829,1 52348U 22045T   23172.42369517  .00001259  00000-0  97177-4 0  9999,2 52348  53.2163 333.5783 0001322  85.2098 274.9045 15.08838082 65988,6917.886,95.438,540.666,538.837,0.0
52348.0,STARLINK-3829,PAYLOAD,2023-06-21 18:07:02,15.08842992,0.0001091,53.217,332.0908,84.8785,275.2331,0.00011056,1.472e-05,0.0,0 STARLINK-3829,1 52348U 22045T   23172.75489280  .00001472  00000-0  11056-3 0  9993,2 52348  53.2170 332.0908 0001091  84.8785 275.2331 15.08842992 66034,6917.871,95.437,540.491,538.982,0.0
52348.0,STARLINK-3829,PAYLOAD,2023-06-22 17:57:49,15.0884252,9.9e-05,53.2168,327.6306,88.0083,272.1023,8.6423e-05,1.088e-05,0.0,0 STARLINK-3829,1 52348U 22045T   23173.74849438  .00001088  00000-0  86423-4 0  9992,2 52348  53.2168 327.6306 0000990  88.0083 272.1023 15.08842520 66184,6917.873,95.437,540.423,539.053,0.0
52348.0,STARLINK-3829,PAYLOAD,2023-06-23 16:13:14,15.08840344,0.0001031,53.2179,323.4668,83.6312,276.4798,5.4288e-05,5.76e-06,0.0,0 STARLINK-3829,1 52348U 22045T   23174.67585890  .00000576  00000-0  54288-4 0  9999,2 52348  53.2179 323.4668 0001031  83.6312 276.4798 15.08840344 66328,6917.879,95.438,540.458,539.031,0.0
52348.0,STARLINK-3829,PAYLOAD,2023-06-24 06:31:42,15.08833175,0.0001054,53.2172,320.7918,82.1684,277.9428,4.6537e-05,4.53e-06,0.0,0 STARLINK-3829,1 52348U 22045T   23175.27202399  .00000453  00000-0  46537-4 0  9998,2 52348  53.2172 320.7918 0001054  82.1684 277.9428 15.08833175 66410,6917.901,95.438,540.495,539.037,0.0
52348.0,STARLINK-3829,PAYLOAD,2023-06-24 19:14:47,15.0884591,0.0001084,53.2168,318.4122,80.844,279.2674,0.00019598,2.833e-05,0.0,0 STARLINK-3829,1 52348U 22045T   23175.80193962  .00002833  00000-0  19598-3 0  9992,2 52348  53.2168 318.4122 0001084  80.8440 279.2674 15.08845910 66490,6917.862,95.437,540.477,538.977,0.0
52348.0,STARLINK-3829,PAYLOAD,2023-06-25 09:33:16,15.08841964,0.0001034,53.2163,315.7344,80.4989,279.612,9.7523e-05,1.265e-05,0.0,0 STARLINK-3829,1 52348U 22045T   23176.39810271  .00001265  00000-0  97523-4 0  9999,2 52348  53.2163 315.7344 0001034  80.4989 279.6120 15.08841964 66585,6917.874,95.437,540.455,539.024,0.0
52348.0,STARLINK-3829,PAYLOAD,2023-06-25 15:54:48,15.08849369,0.0001007,53.2164,314.5461,74.0077,286.1026,0.00021451,3.129e-05,0.0,0 STARLINK-3829,1 52348U 22045T   23176.66305891  .00003129  00000-0  21451-3 0  9993,2 52348  53.2164 314.5461 0001007  74.0077 286.1026 15.08849369 66620,6917.852,95.437,540.413,539.02,0.0
52348.0,STARLINK-3829,PAYLOAD,2023-06-26 09:24:03,15.08832478,0.0001112,53.216,311.276,78.6618,281.4499,2.3413e-05,8.5e-07,0.0,0 STARLINK-3829,1 52348U 22045T   23177.39170724  .00000085  00000-0  23413-4 0  9998,2 52348  53.2160 311.2760 0001112  78.6618 281.4499 15.08832478 66737,6917.903,95.438,540.538,538.999,0.0
52348.0,STARLINK-3829,PAYLOAD,2023-06-27 15:36:22,15.0884327,0.0001045,53.2179,305.6284,79.5662,280.5448,4.4022e-05,4.13e-06,0.0,0 STARLINK-3829,1 52348U 22045T   23178.65026201  .00000413  00000-0  44022-4 0  9992,2 52348  53.2179 305.6284 0001045  79.5662 280.5448 15.08843270 66926,6917.87,95.437,540.458,539.012,0.0
52348.0,STARLINK-3829,PAYLOAD,2023-06-28 09:05:37,15.08832414,0.0001026,53.218,302.3579,93.5283,266.5827,0.00010416,1.37e-05,0.0,0 STARLINK-3829,1 52348U 22045T   23179.37890742  .00001370  00000-0  10416-3 0  9993,2 52348  53.2180 302.3579 0001026  93.5283 266.5827 15.08832414 67039,6917.904,95.438,540.478,539.059,0.0
52348.0,STARLINK-3829,PAYLOAD,2023-06-28 18:37:55,15.08845811,8.48e-05,53.2177,300.573,95.4544,264.6544,0.00011994,1.622e-05,0.0,0 STARLINK-3829,1 52348U 22045T   23179.77633893  .00001622  00000-0  11994-3 0  9991,2 52348  53.2177 300.5730 0000848  95.4544 264.6544 15.08845811 67092,6917.863,95.437,540.314,539.141,0.0
52348.0,STARLINK-3829,PAYLOAD,2023-06-29 16:53:20,15.08840474,0.0001026,53.2179,296.4069,86.913,273.198,4.5571e-05,4.38e-06,0.0,0 STARLINK-3829,1 52348U 22045T   23180.70370592  .00000438  00000-0  45571-4 0  9993,2 52348  53.2179 296.4069 0001026  86.9130 273.1980 15.08840474 67232,6917.879,95.438,540.454,539.034,0.0
52348.0,STARLINK-3829,PAYLOAD,2023-07-01 00:41:02,15.08842489,8.93e-05,53.2176,290.4576,98.3958,261.7135,-5.5994e-06,-3.77e-06,0.0,0 STARLINK-3829,1 52348U 22045T   23182.02850327 -.00000377  00000-0 -55994-5 0  9994,2 52348  53.2176 290.4576 0000893  98.3958 261.7135 15.08842489 67437,6917.873,95.437,540.356,539.12,0.0
